{"type": "FeatureCollection", "features": [ {"type": "Feature", "properties": {"norad_id": 34376, "name": "IRIDIUM 33 DEB", "group": "iridium-33-debris", "lat": -34.54252524482106, "lon": -177.57293590937445, "alt_km": 692.6844670596147, "timestamp": "2025-12-27T13:34:49.680647+00:00", "meta": {"OBJECT_NAME": "IRIDIUM 33 DEB", "OBJECT_ID": "1997-051FU", "EPOCH": "2025-12-26T23:28:16.470624", "MEAN_MOTION": 14.62769588, "ECCENTRICITY": 0.002868, "INCLINATION": 86.2986, "RA_OF_ASC_NODE": 0.1373, "ARG_OF_PERICENTER": 120.2874, "MEAN_ANOMALY": 240.1181, "EPHEMERIS_TYPE": 0, "CLASSIFICATION_TYPE": "U", "NORAD_CAT_ID": 34376, "ELEMENT_SET_NO": 999, "REV_AT_EPOCH": 88215, "BSTAR": 0.0018717, "MEAN_MOTION_DOT": 9.625e-05, "MEAN_MOTION_DDOT": 0}, "tle": {"line1": "1 34376U 97051FU  25360.97796841  .00009625  00000+0  18717-2 0  9999", "line2": "2 34376  86.2986   0.1373 0028680 120.2874 240.1181 14.62769588882153"}}, "geometry": {"type": "Point", "coordinates": [-177.57293590937445, -34.54252524482106]}}, {"type": "Feature", "properties": {"norad_id": 34486, "name": "IRIDIUM 33 DEB", "group": "iridium-33-debris", "lat": 53.64487553625151, "lon": 10.091977899726913, "alt_km": 563.4913156970606, "timestamp": "2025-12-27T13:34:49.680658+00:00", "meta": {"OBJECT_NAME": "IRIDIUM 33 DEB", "OBJECT_ID": "1997-051GB", "EPOCH": "2025-12-27T06:59:53.440800", "MEAN_MOTION": 14.96479608, "ECCENTRICITY": 0.00139048, "INCLINATION": 86.394, "RA_OF_ASC_NODE": 5.3037, "ARG_OF_PERICENTER": 70.6899, "MEAN_ANOMALY": 306.6609, "EPHEMERIS_TYPE": 0, "CLASSIFICATION_TYPE": "U", "NORAD_CAT_ID": 34486, "ELEMENT_SET_NO": 999, "REV_AT_EPOCH": 89204, "BSTAR": 0.0025811731, "MEAN_MOTION_DOT": 0.00029467, "MEAN_MOTION_DDOT": 0}, "tle": {"line1": "1 34486U 97051GB  25361.29159075  .00029467  00000+0  25812-2 0  9999", "line2": "2 34486  86.3940   5.3037 0013904  70.6899 306.6609 14.96479608892048"}}, "geometry": {"type": "Point", "coordinates": [10.091977899726913, 53.64487553625151]}}, {"type": "Feature", "properties": {"norad_id": 34487, "name": "IRIDIUM 33 DEB", "group": "iridium-33-debris", "lat": 49.5626362901049, "lon": -178.31064218292224, "alt_km": 727.5707585874543, "timestamp": "2025-12-27T13:34:49.680668+00:00", "meta": {"OBJECT_NAME": "IRIDIUM 33 DEB", "OBJECT_ID": "1997-051GC", "EPOCH": "2025-12-26T00:37:21.163296", "MEAN_MOTION": 14.43232747, "ECCENTRICITY": 0.00332617, "INCLINATION": 86.3429, "RA_OF_ASC_NODE": 6.6563, "ARG_OF_PERICENTER": 87.1121, "MEAN_ANOMALY": 327.0907, "EPHEMERIS_TYPE": 0, "CLASSIFICATION_TYPE": "U", "NORAD_CAT_ID": 34487, "ELEMENT_SET_NO": 999, "REV_AT_EPOCH": 88440, "BSTAR": 0.00018559814, "MEAN_MOTION_DOT": 6.49e-06, "MEAN_MOTION_DDOT": 0}, "tle": {"line1": "1 34487U 97051GC  25360.02593939  .00000649  00000+0  18560-3 0  9995", "line2": "2 34487  86.3429   6.6563 0033261  87.1121 327.0907 14.43232747884400"}}, "geometry": {"type": "Point", "coordinates": [-178.31064218292224, 49.5626362901049]}}, {"type": "Feature", "properties": {"norad_id": 34488, "name": "IRIDIUM 33 DEB", "group": "iridium-33-debris", "lat": 69.11422299489992, "lon": 108.7543046396684, "alt_km": 458.30281314294007, "timestamp": "2025-12-27T13:34:49.680679+00:00", "meta": {"OBJECT_NAME": "IRIDIUM 33 DEB", "OBJECT_ID": "1997-051GD", "EPOCH": "2025-12-27T02:08:12.094368", "MEAN_MOTION": 15.33259084, "ECCENTRICITY": 0.00080848, "INCLINATION": 86.3256, "RA_OF_ASC_NODE": 298.6875, "ARG_OF_PERICENTER": 29.5801, "MEAN_ANOMALY": 330.5905, "EPHEMERIS_TYPE": 0, "CLASSIFICATION_TYPE": "U", "NORAD_CAT_ID": 34488, "ELEMENT_SET_NO": 999, "REV_AT_EPOCH": 89459, "BSTAR": 0.0056271012, "MEAN_MOTION_DOT": 0.00185034, "MEAN_MOTION_DDOT": 0}, "tle": {"line1": "1 34488U 97051GD  25361.08902887  .00185034  00000+0  56271-2 0  9991", "line2": "2 34488  86.3256 298.6875 0008084  29.5801 330.5905 15.33259084894599"}}, "geometry": {"type": "Point", "coordinates": [108.7543046396684, 69.11422299489992]}}, {"type": "Feature", "properties": {"norad_id": 34492, "name": "IRIDIUM 33 DEB", "group": "iridium-33-debris", "lat": 13.765572372123971, "lon": -30.49890358303609, "alt_km": 941.6212111237392, "timestamp": "2025-12-27T13:34:49.680689+00:00", "meta": {"OBJECT_NAME": "IRIDIUM 33 DEB", "OBJECT_ID": "1997-051GH", "EPOCH": "2025-12-26T22:37:45.027264", "MEAN_MOTION": 14.25970282, "ECCENTRICITY": 0.0188844, "INCLINATION": 86.473, "RA_OF_ASC_NODE": 328.887, "ARG_OF_PERICENTER": 192.0084, "MEAN_ANOMALY": 226.0259, "EPHEMERIS_TYPE": 0, "CLASSIFICATION_TYPE": "U", "NORAD_CAT_ID": 34492, "ELEMENT_SET_NO": 999, "REV_AT_EPOCH": 85261, "BSTAR": 0.0032813, "MEAN_MOTION_DOT": 9.462e-05, "MEAN_MOTION_DDOT": 0}, "tle": {"line1": "1 34492U 97051GH  25360.94288226  .00009462  00000+0  32813-2 0  9990", "line2": "2 34492  86.4730 328.8870 0188844 192.0084 226.0259 14.25970282852613"}}, "geometry": {"type": "Point", "coordinates": [-30.49890358303609, 13.765572372123971]}}, {"type": "Feature", "properties": {"norad_id": 34497, "name": "IRIDIUM 33 DEB", "group": "iridium-33-debris", "lat": -20.741361103122692, "lon": 44.65468273435689, "alt_km": 767.7594168598507, "timestamp": "2025-12-27T13:34:49.680700+00:00", "meta": {"OBJECT_NAME": "IRIDIUM 33 DEB", "OBJECT_ID": "1997-051GN", "EPOCH": "2025-12-22T21:33:03.136608", "MEAN_MOTION": 14.27482363, "ECCENTRICITY": 0.00780484, "INCLINATION": 86.2769, "RA_OF_ASC_NODE": 48.0617, "ARG_OF_PERICENTER": 306.2683, "MEAN_ANOMALY": 179.2919, "EPHEMERIS_TYPE": 0, "CLASSIFICATION_TYPE": "U", "NORAD_CAT_ID": 34497, "ELEMENT_SET_NO": 999, "REV_AT_EPOCH": 87028, "BSTAR": 0.00056228088, "MEAN_MOTION_DOT": 1.443e-05, "MEAN_MOTION_DDOT": 0}, "tle": {"line1": "1 34497U 97051GN  25356.89795297  .00001443  00000+0  56228-3 0  9993", "line2": "2 34497  86.2769  48.0617 0078048 306.2683 179.2919 14.27482363870281"}}, "geometry": {"type": "Point", "coordinates": [44.65468273435689, -20.741361103122692]}}, {"type": "Feature", "properties": {"norad_id": 34508, "name": "IRIDIUM 33 DEB", "group": "iridium-33-debris", "lat": 2.55823879031465, "lon": 96.5198105416153, "alt_km": 791.6070807396918, "timestamp": "2025-12-27T13:34:49.680710+00:00", "meta": {"OBJECT_NAME": "IRIDIUM 33 DEB", "OBJECT_ID": "1997-051GZ", "EPOCH": "2025-12-27T06:53:26.818944", "MEAN_MOTION": 14.38536882, "ECCENTRICITY": 0.00667256, "INCLINATION": 86.3698, "RA_OF_ASC_NODE": 96.4755, "ARG_OF_PERICENTER": 126.3522, "MEAN_ANOMALY": 234.386, "EPHEMERIS_TYPE": 0, "CLASSIFICATION_TYPE": "U", "NORAD_CAT_ID": 34508, "ELEMENT_SET_NO": 999, "REV_AT_EPOCH": 87518, "BSTAR": 0.0013018755, "MEAN_MOTION_DOT": 4.103e-05, "MEAN_MOTION_DDOT": 0}, "tle": {"line1": "1 34508U 97051GZ  25361.28711596  .00004103  00000+0  13019-2 0  9991", "line2": "2 34508  86.3698  96.4755 0066725 126.3522 234.3860 14.38536882875188"}}, "geometry": {"type": "Point", "coordinates": [96.5198105416153, 2.55823879031465]}}, {"type": "Feature", "properties": {"norad_id": 34521, "name": "IRIDIUM 33 DEB", "group": "iridium-33-debris", "lat": 70.10962455460397, "lon": 34.0987817100841, "alt_km": 675.1733885914064, "timestamp": "2025-12-27T13:34:49.680719+00:00", "meta": {"OBJECT_NAME": "IRIDIUM 33 DEB", "OBJECT_ID": "1997-051HN", "EPOCH": "2025-12-27T01:46:22.234080", "MEAN_MOTION": 14.63488583, "ECCENTRICITY": 0.00033783, "INCLINATION": 86.3791, "RA_OF_ASC_NODE": 24.2356, "ARG_OF_PERICENTER": 161.084, "MEAN_ANOMALY": 199.0499, "EPHEMERIS_TYPE": 0, "CLASSIFICATION_TYPE": "U", "NORAD_CAT_ID": 34521, "ELEMENT_SET_NO": 999, "REV_AT_EPOCH": 88682, "BSTAR": 0.0010643818, "MEAN_MOTION_DOT": 5.535e-05, "MEAN_MOTION_DDOT": 0}, "tle": {"line1": "1 34521U 97051HN  25361.07386845  .00005535  00000+0  10644-2 0  9999", "line2": "2 34521  86.3791  24.2356 0003378 161.0840 199.0499 14.63488583886827"}}, "geometry": {"type": "Point", "coordinates": [34.0987817100841, 70.10962455460397]}}, {"type": "Feature", "properties": {"norad_id": 34525, "name": "IRIDIUM 33 DEB", "group": "iridium-33-debris", "lat": -56.67671774805197, "lon": -133.94704069033148, "alt_km": 760.3147997365841, "timestamp": "2025-12-27T13:34:49.680730+00:00", "meta": {"OBJECT_NAME": "IRIDIUM 33 DEB", "OBJECT_ID": "1997-051HS", "EPOCH": "2025-12-27T02:46:13.062144", "MEAN_MOTION": 14.42939848, "ECCENTRICITY": 0.00061196, "INCLINATION": 86.3716, "RA_OF_ASC_NODE": 40.7068, "ARG_OF_PERICENTER": 61.7573, "MEAN_ANOMALY": 356.7447, "EPHEMERIS_TYPE": 0, "CLASSIFICATION_TYPE": "U", "NORAD_CAT_ID": 34525, "ELEMENT_SET_NO": 999, "REV_AT_EPOCH": 88295, "BSTAR": 0.00039403064, "MEAN_MOTION_DOT": 1.337e-05, "MEAN_MOTION_DDOT": 0}, "tle": {"line1": "1 34525U 97051HS  25361.11542896  .00001337  00000+0  39403-3 0  9999", "line2": "2 34525  86.3716  40.7068 0006119  61.7573 356.7447 14.42939848882953"}}, "geometry": {"type": "Point", "coordinates": [-133.94704069033148, -56.67671774805197]}}, {"type": "Feature", "properties": {"norad_id": 34529, "name": "IRIDIUM 33 DEB", "group": "iridium-33-debris", "lat": 8.740946335726266, "lon": 29.650672457420523, "alt_km": 760.9585230293305, "timestamp": "2025-12-27T13:34:49.680740+00:00", "meta": {"OBJECT_NAME": "IRIDIUM 33 DEB", "OBJECT_ID": "1997-051HW", "EPOCH": "2025-12-27T01:52:15.197952", "MEAN_MOTION": 14.40627936, "ECCENTRICITY": 0.00063335, "INCLINATION": 86.3627, "RA_OF_ASC_NODE": 29.2983, "ARG_OF_PERICENTER": 136.9465, "MEAN_ANOMALY": 223.2231, "EPHEMERIS_TYPE": 0, "CLASSIFICATION_TYPE": "U", "NORAD_CAT_ID": 34529, "ELEMENT_SET_NO": 999, "REV_AT_EPOCH": 88348, "BSTAR": 0.00015042495, "MEAN_MOTION_DOT": 5e-06, "MEAN_MOTION_DDOT": 0}, "tle": {"line1": "1 34529U 97051HW  25361.07795368  .00000500  00000+0  15042-3 0  9996", "line2": "2 34529  86.3627  29.2983 0006333 136.9465 223.2231 14.40627936883487"}}, "geometry": {"type": "Point", "coordinates": [29.650672457420523, 8.740946335726266]}}]}